COSMOS 2251 DEB         
1 34477U 93036TW  17345.89896384  .00000365  00000-0  10915-3 0  9994
2 34477  73.9810 152.3027 0092740 300.6941 178.7734 14.44190880463436
